{"schema": {"fields": [{"name": "index", "type": "integer"}, {"name": "zipcode", "type": "string"}, {"name": "Average_School_Rating", "type": "number"}, {"name": "POPULATION_TOTAL", "type": "integer"}, {"name": "population_white_ratio", "type": "number"}, {"name": "population_black_aa_ratio", "type": "number"}], "primaryKey": ["index"], "pandas_version": "0.20.0"}, "data": [{"index": 0, "zipcode": "91901", "Average_School_Rating": 5.9538461538, "POPULATION_TOTAL": 18507, "population_white_ratio": 0.7691143892, "population_black_aa_ratio": 0.0131842006}, {"index": 1, "zipcode": "91902", "Average_School_Rating": 6.1486880466, "POPULATION_TOTAL": 18813, "population_white_ratio": 0.3659171849, "population_black_aa_ratio": 0.0444905119}, {"index": 2, "zipcode": "91905", "Average_School_Rating": 7.0, "POPULATION_TOTAL": 1139, "population_white_ratio": 0.4846356453, "population_black_aa_ratio": 0.0746268657}, {"index": 3, "zipcode": "91906", "Average_School_Rating": 4.2797356828, "POPULATION_TOTAL": 3466, "population_white_ratio": 0.6243508367, "population_black_aa_ratio": 0.025966532}, {"index": 4, "zipcode": "91910", "Average_School_Rating": 6.2373810782, "POPULATION_TOTAL": 77302, "population_white_ratio": 0.2320250446, "population_black_aa_ratio": 0.0381102688}, {"index": 5, "zipcode": "91911", "Average_School_Rating": 5.293859037, "POPULATION_TOTAL": 84122, "population_white_ratio": 0.1469770096, "population_black_aa_ratio": 0.0284943297}, {"index": 6, "zipcode": "91913", "Average_School_Rating": 8.0031164488, "POPULATION_TOTAL": 45430, "population_white_ratio": 0.1715386309, "population_black_aa_ratio": 0.0737838433}, {"index": 7, "zipcode": "91914", "Average_School_Rating": 8.2236777064, "POPULATION_TOTAL": 17406, "population_white_ratio": 0.1914856946, "population_black_aa_ratio": 0.0583706768}, {"index": 8, "zipcode": "91915", "Average_School_Rating": 8.1697841727, "POPULATION_TOTAL": 28209, "population_white_ratio": 0.2155694991, "population_black_aa_ratio": 0.0581729235}, {"index": 9, "zipcode": "91916", "Average_School_Rating": 6.0, "POPULATION_TOTAL": 1611, "population_white_ratio": 0.8386095593, "population_black_aa_ratio": 0.0068280571}, {"index": 10, "zipcode": "91932", "Average_School_Rating": 3.8063634104, "POPULATION_TOTAL": 26555, "population_white_ratio": 0.3345885897, "population_black_aa_ratio": 0.0304650725}, {"index": 11, "zipcode": "91935", "Average_School_Rating": 4.9373333333, "POPULATION_TOTAL": 8335, "population_white_ratio": 0.6890221956, "population_black_aa_ratio": 0.0164367127}, {"index": 12, "zipcode": "91941", "Average_School_Rating": 7.5167720649, "POPULATION_TOTAL": 33111, "population_white_ratio": 0.6144181692, "population_black_aa_ratio": 0.054120987}, {"index": 13, "zipcode": "91942", "Average_School_Rating": 5.6317355372, "POPULATION_TOTAL": 39804, "population_white_ratio": 0.5772535424, "population_black_aa_ratio": 0.0564264898}, {"index": 14, "zipcode": "91945", "Average_School_Rating": 5.046440678, "POPULATION_TOTAL": 26486, "population_white_ratio": 0.3423317979, "population_black_aa_ratio": 0.1060937854}, {"index": 15, "zipcode": "91950", "Average_School_Rating": 4.1323081983, "POPULATION_TOTAL": 61774, "population_white_ratio": 0.1046071163, "population_black_aa_ratio": 0.0436915207}, {"index": 16, "zipcode": "91962", "Average_School_Rating": 4.0734632684, "POPULATION_TOTAL": 1998, "population_white_ratio": 0.8818818819, "population_black_aa_ratio": 0.001001001}, {"index": 17, "zipcode": "91963", "Average_School_Rating": 2.0, "POPULATION_TOTAL": 1256, "population_white_ratio": 0.2261146497, "population_black_aa_ratio": 0.0}, {"index": 18, "zipcode": "91977", "Average_School_Rating": 4.3333333333, "POPULATION_TOTAL": 62072, "population_white_ratio": 0.3107359196, "population_black_aa_ratio": 0.1080841603}, {"index": 19, "zipcode": "91978", "Average_School_Rating": 7.3462469734, "POPULATION_TOTAL": 9793, "population_white_ratio": 0.4859593587, "population_black_aa_ratio": 0.1126314715}, {"index": 20, "zipcode": "92003", "Average_School_Rating": 7.1198721364, "POPULATION_TOTAL": 4267, "population_white_ratio": 0.6503398172, "population_black_aa_ratio": 0.03257558}, {"index": 21, "zipcode": "92004", "Average_School_Rating": 4.0932642487, "POPULATION_TOTAL": 2709, "population_white_ratio": 0.5751199705, "population_black_aa_ratio": 0.042451089}, {"index": 22, "zipcode": "92007", "Average_School_Rating": 7.0, "POPULATION_TOTAL": 12131, "population_white_ratio": 0.8295276564, "population_black_aa_ratio": 0.003791938}, {"index": 23, "zipcode": "92008", "Average_School_Rating": 7.760366182, "POPULATION_TOTAL": 26896, "population_white_ratio": 0.740035693, "population_black_aa_ratio": 0.0085514575}, {"index": 24, "zipcode": "92009", "Average_School_Rating": 8.2732072151, "POPULATION_TOTAL": 43837, "population_white_ratio": 0.7383945069, "population_black_aa_ratio": 0.0177019413}, {"index": 25, "zipcode": "92010", "Average_School_Rating": 7.8821205137, "POPULATION_TOTAL": 15598, "population_white_ratio": 0.7244518528, "population_black_aa_ratio": 0.0042954225}, {"index": 26, "zipcode": "92011", "Average_School_Rating": 9.0, "POPULATION_TOTAL": 24476, "population_white_ratio": 0.7298169636, "population_black_aa_ratio": 0.0041264913}, {"index": 27, "zipcode": "92014", "Average_School_Rating": 9.0, "POPULATION_TOTAL": 13708, "population_white_ratio": 0.8117887365, "population_black_aa_ratio": 0.0041581558}, {"index": 28, "zipcode": "92019", "Average_School_Rating": 5.0747149037, "POPULATION_TOTAL": 43873, "population_white_ratio": 0.6310942949, "population_black_aa_ratio": 0.0286508787}, {"index": 29, "zipcode": "92020", "Average_School_Rating": 5.1154188948, "POPULATION_TOTAL": 58940, "population_white_ratio": 0.5961655921, "population_black_aa_ratio": 0.0543773329}, {"index": 30, "zipcode": "92021", "Average_School_Rating": 4.0492822967, "POPULATION_TOTAL": 67608, "population_white_ratio": 0.5755827713, "population_black_aa_ratio": 0.0439445036}, {"index": 31, "zipcode": "92024", "Average_School_Rating": 7.2045454545, "POPULATION_TOTAL": 49566, "population_white_ratio": 0.7856796998, "population_black_aa_ratio": 0.0086954767}, {"index": 32, "zipcode": "92025", "Average_School_Rating": 5.518443804, "POPULATION_TOTAL": 51859, "population_white_ratio": 0.3924294722, "population_black_aa_ratio": 0.0209799649}, {"index": 33, "zipcode": "92026", "Average_School_Rating": 4.5242849433, "POPULATION_TOTAL": 50412, "population_white_ratio": 0.5211259224, "population_black_aa_ratio": 0.0210069031}, {"index": 34, "zipcode": "92027", "Average_School_Rating": 5.1211832061, "POPULATION_TOTAL": 56875, "population_white_ratio": 0.3751912088, "population_black_aa_ratio": 0.0209406593}, {"index": 35, "zipcode": "92028", "Average_School_Rating": 4.839394438, "POPULATION_TOTAL": 47807, "population_white_ratio": 0.5875708578, "population_black_aa_ratio": 0.0179889974}, {"index": 36, "zipcode": "92029", "Average_School_Rating": 7.0347666972, "POPULATION_TOTAL": 18717, "population_white_ratio": 0.7074317465, "population_black_aa_ratio": 0.0159213549}, {"index": 37, "zipcode": "92036", "Average_School_Rating": 4.855104281, "POPULATION_TOTAL": 3173, "population_white_ratio": 0.8562874251, "population_black_aa_ratio": 0.004097069}, {"index": 38, "zipcode": "92037", "Average_School_Rating": 8.5087535929, "POPULATION_TOTAL": 37718, "population_white_ratio": 0.7748289941, "population_black_aa_ratio": 0.0066016226}, {"index": 39, "zipcode": "92040", "Average_School_Rating": 5.9497374344, "POPULATION_TOTAL": 43269, "population_white_ratio": 0.7307078971, "population_black_aa_ratio": 0.0202916638}, {"index": 40, "zipcode": "92054", "Average_School_Rating": 4.4793785833, "POPULATION_TOTAL": 42195, "population_white_ratio": 0.5309159853, "population_black_aa_ratio": 0.0346723545}, {"index": 41, "zipcode": "92056", "Average_School_Rating": 4.669448625, "POPULATION_TOTAL": 54069, "population_white_ratio": 0.5445819231, "population_black_aa_ratio": 0.0412066064}, {"index": 42, "zipcode": "92057", "Average_School_Rating": 6.144250141, "POPULATION_TOTAL": 56764, "population_white_ratio": 0.4515009513, "population_black_aa_ratio": 0.0567613276}, {"index": 43, "zipcode": "92058", "Average_School_Rating": 6.3346482577, "POPULATION_TOTAL": 44825, "population_white_ratio": 0.469224763, "population_black_aa_ratio": 0.0882543224}, {"index": 44, "zipcode": "92059", "Average_School_Rating": 2.0, "POPULATION_TOTAL": 1310, "population_white_ratio": 0.1893129771, "population_black_aa_ratio": 0.0183206107}, {"index": 45, "zipcode": "92061", "Average_School_Rating": 3.0, "POPULATION_TOTAL": 1642, "population_white_ratio": 0.4591961023, "population_black_aa_ratio": 0.0018270402}, {"index": 46, "zipcode": "92064", "Average_School_Rating": 7.3268865288, "POPULATION_TOTAL": 49587, "population_white_ratio": 0.6452900962, "population_black_aa_ratio": 0.013935104}, {"index": 47, "zipcode": "92065", "Average_School_Rating": 5.5315645014, "POPULATION_TOTAL": 36637, "population_white_ratio": 0.7117667931, "population_black_aa_ratio": 0.0171138467}, {"index": 48, "zipcode": "92067", "Average_School_Rating": 9.0825991189, "POPULATION_TOTAL": 9147, "population_white_ratio": 0.8601727342, "population_black_aa_ratio": 0.0136656827}, {"index": 49, "zipcode": "92069", "Average_School_Rating": 6.0045551169, "POPULATION_TOTAL": 49135, "population_white_ratio": 0.3978630304, "population_black_aa_ratio": 0.0266815915}, {"index": 50, "zipcode": "92071", "Average_School_Rating": 6.3763910103, "POPULATION_TOTAL": 56158, "population_white_ratio": 0.7121692368, "population_black_aa_ratio": 0.0160796325}, {"index": 51, "zipcode": "92075", "Average_School_Rating": 8.4567243675, "POPULATION_TOTAL": 12491, "population_white_ratio": 0.7747978545, "population_black_aa_ratio": 0.0037627092}, {"index": 52, "zipcode": "92078", "Average_School_Rating": 6.9124463519, "POPULATION_TOTAL": 45984, "population_white_ratio": 0.6087987126, "population_black_aa_ratio": 0.0179845164}, {"index": 53, "zipcode": "92081", "Average_School_Rating": 7.2213427948, "POPULATION_TOTAL": 29038, "population_white_ratio": 0.6220469729, "population_black_aa_ratio": 0.0307872443}, {"index": 54, "zipcode": "92082", "Average_School_Rating": 4.1352095442, "POPULATION_TOTAL": 19541, "population_white_ratio": 0.6535489484, "population_black_aa_ratio": 0.0033775139}, {"index": 55, "zipcode": "92083", "Average_School_Rating": 4.7673897831, "POPULATION_TOTAL": 36431, "population_white_ratio": 0.3347698389, "population_black_aa_ratio": 0.0292058961}, {"index": 56, "zipcode": "92084", "Average_School_Rating": 4.2458100559, "POPULATION_TOTAL": 50377, "population_white_ratio": 0.4439922981, "population_black_aa_ratio": 0.0264803382}, {"index": 57, "zipcode": "92086", "Average_School_Rating": 3.9286885246, "POPULATION_TOTAL": 1538, "population_white_ratio": 0.6931079324, "population_black_aa_ratio": 0.0130039012}, {"index": 58, "zipcode": "92101", "Average_School_Rating": 5.0179770414, "POPULATION_TOTAL": 36295, "population_white_ratio": 0.5901639344, "population_black_aa_ratio": 0.0799283648}, {"index": 59, "zipcode": "92102", "Average_School_Rating": 4.413080895, "POPULATION_TOTAL": 45461, "population_white_ratio": 0.193704494, "population_black_aa_ratio": 0.1020655067}, {"index": 60, "zipcode": "92103", "Average_School_Rating": 6.8252106999, "POPULATION_TOTAL": 33241, "population_white_ratio": 0.7181191902, "population_black_aa_ratio": 0.0362203303}, {"index": 61, "zipcode": "92104", "Average_School_Rating": 7.4981897176, "POPULATION_TOTAL": 44756, "population_white_ratio": 0.4869514702, "population_black_aa_ratio": 0.0709848959}, {"index": 62, "zipcode": "92105", "Average_School_Rating": 4.4481438959, "POPULATION_TOTAL": 71832, "population_white_ratio": 0.1163269852, "population_black_aa_ratio": 0.1346335895}, {"index": 63, "zipcode": "92106", "Average_School_Rating": 6.4693049214, "POPULATION_TOTAL": 18415, "population_white_ratio": 0.7190333967, "population_black_aa_ratio": 0.0363833831}, {"index": 64, "zipcode": "92107", "Average_School_Rating": 8.0975035327, "POPULATION_TOTAL": 28360, "population_white_ratio": 0.808180536, "population_black_aa_ratio": 0.0125528914}, {"index": 65, "zipcode": "92109", "Average_School_Rating": 6.9110864129, "POPULATION_TOTAL": 46797, "population_white_ratio": 0.815030878, "population_black_aa_ratio": 0.0097014766}, {"index": 66, "zipcode": "92110", "Average_School_Rating": 7.3141938447, "POPULATION_TOTAL": 28789, "population_white_ratio": 0.6495189135, "population_black_aa_ratio": 0.0364722637}, {"index": 67, "zipcode": "92111", "Average_School_Rating": 6.2283011869, "POPULATION_TOTAL": 49375, "population_white_ratio": 0.4177417722, "population_black_aa_ratio": 0.0458531646}, {"index": 68, "zipcode": "92113", "Average_School_Rating": 3.7068900365, "POPULATION_TOTAL": 57737, "population_white_ratio": 0.0969395708, "population_black_aa_ratio": 0.1161473578}, {"index": 69, "zipcode": "92114", "Average_School_Rating": 5.6638723013, "POPULATION_TOTAL": 69798, "population_white_ratio": 0.0840425227, "population_black_aa_ratio": 0.1909940113}, {"index": 70, "zipcode": "92115", "Average_School_Rating": 4.5412718467, "POPULATION_TOTAL": 62308, "population_white_ratio": 0.3872375939, "population_black_aa_ratio": 0.1330487257}, {"index": 71, "zipcode": "92116", "Average_School_Rating": 6.3202779533, "POPULATION_TOTAL": 33110, "population_white_ratio": 0.5769556025, "population_black_aa_ratio": 0.0687405618}, {"index": 72, "zipcode": "92117", "Average_School_Rating": 5.1283500161, "POPULATION_TOTAL": 53477, "population_white_ratio": 0.5965929278, "population_black_aa_ratio": 0.0215980702}, {"index": 73, "zipcode": "92118", "Average_School_Rating": 9.1067674113, "POPULATION_TOTAL": 22939, "population_white_ratio": 0.7681677492, "population_black_aa_ratio": 0.0267230481}, {"index": 74, "zipcode": "92119", "Average_School_Rating": 7.0903508772, "POPULATION_TOTAL": 24265, "population_white_ratio": 0.6952400577, "population_black_aa_ratio": 0.0335050484}, {"index": 75, "zipcode": "92120", "Average_School_Rating": 8.0516712142, "POPULATION_TOTAL": 27135, "population_white_ratio": 0.6747005712, "population_black_aa_ratio": 0.0556108347}, {"index": 76, "zipcode": "92121", "Average_School_Rating": 3.2571996028, "POPULATION_TOTAL": 4503, "population_white_ratio": 0.4186098157, "population_black_aa_ratio": 0.0124361537}, {"index": 77, "zipcode": "92122", "Average_School_Rating": 8.1788344204, "POPULATION_TOTAL": 46104, "population_white_ratio": 0.5157686969, "population_black_aa_ratio": 0.0244447336}, {"index": 78, "zipcode": "92123", "Average_School_Rating": 6.6516634051, "POPULATION_TOTAL": 29955, "population_white_ratio": 0.4788849942, "population_black_aa_ratio": 0.085494909}, {"index": 79, "zipcode": "92124", "Average_School_Rating": 7.4119034658, "POPULATION_TOTAL": 30135, "population_white_ratio": 0.5966815995, "population_black_aa_ratio": 0.0643769703}, {"index": 80, "zipcode": "92126", "Average_School_Rating": 7.9421256167, "POPULATION_TOTAL": 79589, "population_white_ratio": 0.2969380191, "population_black_aa_ratio": 0.0431717951}, {"index": 81, "zipcode": "92127", "Average_School_Rating": 8.666966337, "POPULATION_TOTAL": 43033, "population_white_ratio": 0.5103060442, "population_black_aa_ratio": 0.0210071341}, {"index": 82, "zipcode": "92128", "Average_School_Rating": 8.3744200433, "POPULATION_TOTAL": 48906, "population_white_ratio": 0.6020938126, "population_black_aa_ratio": 0.0199770989}, {"index": 83, "zipcode": "92129", "Average_School_Rating": 8.9029795158, "POPULATION_TOTAL": 54735, "population_white_ratio": 0.5029140404, "population_black_aa_ratio": 0.0310221979}, {"index": 84, "zipcode": "92130", "Average_School_Rating": 9.2657455285, "POPULATION_TOTAL": 51262, "population_white_ratio": 0.5688814326, "population_black_aa_ratio": 0.0153720105}, {"index": 85, "zipcode": "92131", "Average_School_Rating": 8.8763348715, "POPULATION_TOTAL": 34039, "population_white_ratio": 0.6172037956, "population_black_aa_ratio": 0.0211815858}, {"index": 86, "zipcode": "92139", "Average_School_Rating": 6.1256038647, "POPULATION_TOTAL": 36934, "population_white_ratio": 0.1393025397, "population_black_aa_ratio": 0.1103590188}, {"index": 87, "zipcode": "92154", "Average_School_Rating": 4.8309208291, "POPULATION_TOTAL": 88292, "population_white_ratio": 0.1180741177, "population_black_aa_ratio": 0.0510125493}, {"index": 88, "zipcode": "92173", "Average_School_Rating": 3.5407391398, "POPULATION_TOTAL": 32355, "population_white_ratio": 0.0280945758, "population_black_aa_ratio": 0.0057796322}, {"index": 89, "zipcode": "92592", "Average_School_Rating": 8.0352620992, "POPULATION_TOTAL": 77420, "population_white_ratio": 0.5869542754, "population_black_aa_ratio": 0.0313872384}, {"index": 90, "zipcode": "92672", "Average_School_Rating": 6.3612071676, "POPULATION_TOTAL": 35344, "population_white_ratio": 0.7103893164, "population_black_aa_ratio": 0.003197148}]}